EXPRESS 80              
1 45986U 20053B   24030.41907617 -.00000123  00000+0  00000+0 0  9991
2 45986   0.0083  26.3005 0001574  19.3431 314.3465  1.00271826 12926
BSAT-4B                 
1 46112U 20056A   24031.01012326 -.00000336  00000+0  00000+0 0  9993
2 46112   0.0315 166.4700 0000489 321.8407 114.8839  1.00273795 12691
MEV-2                   
1 46113U 20056B   24030.41499135  .00000002  00000+0  00000+0 0  9993
2 46113   0.0550 254.0487 0000565  82.0532 301.4336  1.00271520 71830
GALAXY 30 (G-30)        
1 46114U 20056C   24030.60539744  .00000050  00000+0  00000+0 0  9999
2 46114   0.0184  80.9613 0002059 231.8882 269.4041  1.00271311 12584
GAOFEN-13 01            
1 46610U 20071A   24031.01168969 -.00000348  00000+0  00000+0 0  9991
2 46610   0.2594  85.6821 0012018 277.8698 248.1046  1.00272196 12194
TIANTONG-1 2            
1 46916U 20082A   24030.86992965 -.00000340  00000+0  00000+0 0  9997
2 46916   2.6860 293.1438 0002211  19.8792 254.6388  1.00277890 11947
LUCAS (JDRS-1)          
1 47202U 20089A   24031.07800101 -.00000220  00000+0  00000+0 0  9994
2 47202   0.0167  99.5076 0003264 212.8457 296.2844  1.00269453 11693
SXM-7                   
1 47240U 20096A   24030.89969144 -.00000190  00000+0  00000+0 0  9992
2 47240   0.0173  27.1005 0002318 161.0541 180.0998  1.00270960 11605
CMS-01                  
1 47256U 20099A   24030.86157546 -.00000151  00000+0  00000+0 0  9991
2 47256   0.0096 112.5123 0008101 163.8455 246.3924  1.00272342 11494
TURKSAT 5A              
1 47306U 21001A   24031.16924426  .00000169  00000+0  00000+0 0  9992
2 47306   0.0248  92.1574 0000289 308.0032 181.5472  1.00272103 11285
TIANTONG-1 3            
1 47321U 21003A   24031.14779322 -.00000137  00000+0  00000+0 0  9998
2 47321   3.1566 310.5447 0004931 356.2472 317.7892  1.00270761 11261
TJS-6                   
1 47613U 21010A   24030.73739404  .00000058  00000+0  00000+0 0  9992
2 47613   0.0297  48.0044 0001187 295.1945 230.2922  1.00276872 11109
SBIRS GEO-5 (USA 315)   
1 48618U 21042A   24030.92083794  .00000134  00000+0  00000+0 0  9993
2 48618   6.3672 325.5021 0002560 338.6241 177.9049  1.00273061 10054
FENGYUN 4B              
1 48808U 21047A   24031.47549486 -.00000307  00000+0  00000+0 0  9998
2 48808   0.0934  75.5311 0003486 357.1275   1.7533  1.00270118  9861
SXM-8                   
1 48838U 21049A   24029.46748751 -.00000204  00000+0  00000+0 0  9991
2 48838   0.0077 113.2294 0005327 207.7779 250.3107  1.00347629  9880
TIANLIAN 1-05           
1 49011U 21063A   24031.13491385  .00000124  00000+0  00000+0 0  9996
2 49011   0.6588 279.3047 0003075  14.5599 261.3445  1.00275869  9365
STAR ONE D2             
1 49055U 21069A   24031.11759632 -.00000250  00000+0  00000+0 0  9991
2 49055   0.0093  88.6053 0001344 188.6625 184.8932  1.00270528  9206
EUTELSAT QUANTUM        
1 49056U 21069B   24031.14100544  .00000141  00000+0  00000+0 0  9995
2 49056   0.0617 277.3828 0002864  35.6039 275.3129  1.00271194  9219
CHINASAT 2E (ZX 2E)     
1 49062U 21071A   24030.81646455 -.00000277  00000+0  00000+0 0  9995
2 49062   0.0615 110.3920 0000975 288.1817 122.9026  1.00269855  9341
TJS-7                   
1 49115U 21077A   24031.52861317 -.00000107  00000+0  00000+0 0  9997
2 49115   0.0591 295.2694 0000884 325.9861 319.6796  1.00269542  9119
CHINASAT 9B             
1 49125U 21080A   24030.80952323 -.00000298  00000+0  00000+0 0  9991
2 49125   0.0118 282.3016 0001899  14.1275 225.9237  1.00266460  8948
SHIJIAN-21 (SJ-21)      
1 49330U 21094A   24031.59223623 -.00000324  00000+0  00000+0 0  9995
2 49330   9.5522  46.2357 0078914  28.8917  10.3123  1.00382592  8553
SES-17                  
1 49332U 21095A   24030.22549465 -.00000260  00000+0  00000+0 0  9991
2 49332   0.0149  79.2525 0001089 228.8603 194.9008  1.00269800  9134
SYRACUSE 4A             
1 49333U 21095B   24031.16368696  .00000150  00000+0  00000+0 0  9998
2 49333   0.0196  83.9900 0001515 219.9364 290.3744  1.00271398  9284
QZS-1R                  
1 49336U 21096A   24029.59354620 -.00000286  00000+0  00000+0 0  9999
2 49336  35.6565  92.6609 0760655 272.0825 107.3341  1.00241616  8293
CHINASAT 1D (ZX 1D)     
1 49505U 21114A   24031.49155681 -.00000321  00000+0  00000+0 0  9996
2 49505   0.0133 113.0931 0000789 143.5227 180.7046  1.00271941  8120
STPSAT-6                
1 49817U 21118A   24031.39580796 -.00000030  00000+0  00000+0 0  9991
2 49817   0.0162 103.9688 0000867 223.8360 193.1459  1.00271837  7873
LDPE-1                  
1 49818U 21118B   24031.46385972  .00000029  00000+0  00000+0 0  9996
2 49818   1.8741  89.6809 0006869 217.1623 220.6951  1.00633520  7927
EXPRESS AMU-7           
1 50001U 21123A   24029.24171552 -.00000234  00000+0  00000+0 0  9997
2 50001   0.0102  46.5142 0000648 120.8397 192.6217  1.00273630  7817
EXPRESS AMU-3           
1 50002U 21123B   24030.35561703 -.00000308  00000+0  00000+0 0  9995
2 50002   0.0094  54.8843 0000639 155.0782 150.0338  1.00267852  7794
TIANLIAN 2-02           
1 50005U 21124A   24031.09392615  .00000002  00000+0  00000+0 0  9995
2 50005   1.0307 275.3195 0003042  31.5804  27.7702  1.00272868  7900
TURKSAT 5B              
1 50212U 21126A   24030.92501503  .00000160  00000+0  00000+0 0  9991
2 50212   0.0685 344.1562 0005376 335.7094 184.7508  1.00272141  7590
INMARSAT 6-F1           
1 50319U 21128A   24031.14822833 -.00000157  00000+0  00000+0 0  9995
2 50319   0.0163  56.5654 0000795 345.9003 224.5120  1.00270969  7531
SHIYAN 12 01 (SY-12 01) 
1 50321U 21129A   24031.71044862  .00000172  00000+0  00000+0 0  9996
2 50321   1.4271  93.5347 0000998 128.0856 194.6490  1.00443187  7812
SHIYAN 12 02 (SY-12 02) 
1 50322U 21129B   24031.67434389 -.00000182  00000+0  00000+0 0  9991
2 50322   1.4254  93.5454 0003127 190.4711 235.9760  1.00422178  7819
TJS-9                   
1 50574U 21135A   24030.87236630 -.00000286  00000+0  00000+0 0  9992
2 50574   0.0633 103.9258 0005527 233.4885 243.4062  1.00269905  7735
USA 325                 
1 51281U 22006B   24020.77727973 -.00000222  00000+0  00000+0 0  9999
2 51281   0.3369  85.7588 0000935 330.5890 133.2224  1.00139152  7327
GOES 18                 
1 51850U 22021A   24031.44692295  .00000112  00000+0  00000+0 0  9999
2 51850   0.0090 260.4129 0000504   0.3751 253.2434  1.00272119  7103
CHINASAT 6D (ZX 6D)     
1 52255U 22038A   24031.29139057 -.00000339  00000+0  00000+0 0  9994
2 52255   0.0589 258.9787 0002775  33.7910  67.1806  1.00271400  6743
NILESAT 301             
1 52817U 22061A   24031.41660640 -.00000042  00000+0  00000+0 0  9996
2 52817   0.0491 344.2771 0005324 339.0035 309.8015  1.00272747  6028
CMS-02 (GSAT 24)        
1 52903U 22067A   24031.14805428 -.00000150  00000+0  00000+0 0  9993
2 52903   0.0896 273.6591 0003045 171.0224 181.4297  1.00274758  5894
MEASAT 3D               
1 52904U 22067B   24031.14970772 -.00000227  00000+0  00000+0 0  9994
2 52904   0.0506 292.9977 0003441  18.5821 323.6837  1.00272269  5933
SES-22                  
1 52933U 22071A   24031.44633566  .00000104  00000+0  00000+0 0  9994
2 52933   0.0090  43.9002 0001148 256.0715 215.8611  1.00269744  5867
WFOV (USA 332)          
1 52940U 22073A   24030.86879836 -.00000349  00000+0  00000+0 0  9993
2 52940   1.4660  90.1569 0001074 160.0358 311.3653  1.00266491  5662
TIANLIAN 2-03           
1 53100U 22078A   24030.38875158  .00000085  00000+0  00000+0 0  9993
2 53100   1.5844 279.4248 0001972  45.9126 314.3151  1.00269347  5842
SBIRS GEO-6 (USA 336)   
1 53355U 22092A   24030.69633378 -.00000276  00000+0  00000+0 0  9994
2 53355   4.8610 310.9518 0003935  27.5974 180.4880  1.00270926  5521
EUTELSAT KONNECT VHTS   
1 53765U 22110A   24031.70496619  .00000033  00000+0  00000+0 0  9998
2 53765   0.0519  94.0770 0002767 205.6976  87.0960  1.00271481  5095
CHINASAT 1E (ZX 1E)     
1 53813U 22112A   24031.14770619 -.00000135  00000+0  00000+0 0  9991
2 53813   0.2287 279.1363 0002562  27.4525 317.8262  1.00273292  5147
SES-20                  
1 53960U 22123A   24030.60974858 -.00000087  00000+0  00000+0 0  9993
2 53960   0.0188 173.2178 0001068 248.7617 183.7362  1.00269872  4831
SES-21                  
1 53961U 22123B   24030.52549524  .00000082  00000+0  00000+0 0  9997
2 53961   0.0181  29.5288 0001437 287.2335 230.6603  1.00277217  4848
GALAXY 33 (G-33)        
1 54026U 22128A   24031.48150559  .00000095  00000+0  00000+0 0  9991
2 54026   0.0120  72.1801 0001834 242.7012 215.6362  1.00272818  5048
GALAXY 34 (G-34)        
1 54027U 22128B   24031.47730620  .00000074  00000+0  00000+0 0  9991
2 54027   0.0126  59.6672 0001553 245.9572 227.3849  1.00274024  5079
ANGOSAT 2               
1 54033U 22131A   24031.16924426  .00000150  00000+0  00000+0 0  9992
2 54033   0.0204 162.9175 0000161 266.7607 144.1121  1.00272864  4778
EUTELSAT HOTBIRD 13F    
1 54048U 22134A   24030.91927154  .00000101  00000+0  00000+0 0  9990
2 54048   0.0659 285.3633 0004100   4.4863 183.7063  1.00272238  4741
EUTELSAT HOTBIRD 13G    
1 54225U 22146A   24030.91927154  .00000101  00000+0  00000+0 0  9990
2 54225   0.0523 253.3450 0004546 347.7845 232.4221  1.00272195  4523
CHINASAT 19 (ZX 19)     
1 54230U 22148A   24031.52107501 -.00000064  00000+0  00000+0 0  9991
2 54230   0.0224  95.5842 0006229 172.7157 212.8965  1.00270576  4663
GALAXY 31 (G-31)        
1 54243U 22153A   24031.10750169  .00000028  00000+0  00000+0 0  9998
2 54243   0.0169  92.6385 0002344 219.8968  94.9754  1.00272741  4450
GALAXY 32 (G-32)        
1 54244U 22153B   24030.89856014 -.00000160  00000+0  00000+0 0  9998
2 54244   0.0124  63.8086 0002728 276.2353  22.0328  1.00271528  4430
EUTELSAT 10B            
1 54259U 22157A   24030.91866237  .00000082  00000+0  00000+0 0  9991
2 54259   0.0503  93.3891 0005439 178.6110 198.3315  1.00272148  4327
